{"type":"Feature","properties":{"layer":"water","attribution":"\u00a9 OpenStreetMap contributors (ODbL), via geo-maps 0.6.0 (100 m)"},"geometry":{"type":"MultiPolygon","coordinates":[[[[72.9932,18.8706],[72.9804,18.8751],[72.9932,18.8751],[72.9932,18.8864],[72.9979,18.8751],[72.9932,18.8706]]],[[[72.9584,18.9375],[72.9932,18.9518],[72.998,18.9375],[72.9584,18.9375]]],[[[72.8999,19.0206],[72.9053,19.0258],[72.9053,19.0155],[72.8999,19.0206]]],[[[72.8575,19.0206],[72.8613,19.0242],[72.8613,19.0206],[72.8575,19.0206]]],[[[72.8613,19.0559],[72.8559,19.0621],[72.8613,19.0672],[72.8679,19.0621],[72.8613,19.0559]]],[[[72.9439,19.0621],[72.9492,19.0781],[72.9492,19.0571],[72.9439,19.0621]]],[[[72.8394,19.0847],[72.8413,19.0829],[72.8394,19.0829],[72.8394,19.0847]]],[[[72.8833,19.0861],[72.8833,19.0829],[72.8799,19.0829],[72.8833,19.0861]]],[[[72.8781,19.3293],[72.8816,19.3226],[72.8849,19.3237],[72.8886,19.3085],[72.9026,19.2925],[72.9162,19.2902],[72.9286,19.2946],[72.9372,19.2893],[72.9421,19.2982],[72.9587,19.3046],[72.9924,19.2888],[72.99297,19.27292],[72.9932,19.2745],[73.0085,19.2697],[72.99309,19.2697],[72.9932,19.2665],[73.0016,19.2596],[73.0046,19.2311],[73.0099,19.2245],[73.0072,19.219],[72.9986,19.2158],[72.9995,19.2086],[72.9957,19.2092],[72.9843,19.1927],[72.98661,19.18689],[72.9932,19.193],[72.9932,19.1867],[72.98668,19.1867],[72.9874,19.1849],[72.9785,19.1056],[72.9844,19.1013],[72.9862,19.086],[72.9899,19.0839],[72.97946,19.06645],[72.9932,19.0685],[72.9999,19.0621],[72.99682,19.05042],[72.998,19.0482],[73.0034,19.0287],[73.0,19.0151],[73.0025,19.0021],[73.018,18.9991],[73.0228,19.0078],[73.0202,19.0008],[73.0302,19.0037],[73.03013,19.00002],[73.0371,19.0066],[73.0371,18.9998],[73.03013,18.9998],[73.0299,18.988],[73.0374,18.9873],[73.04013,18.98124],[73.0425,18.979],[73.04114,18.979],[73.0419,18.9773],[73.0362,18.976],[73.032,18.9857],[73.0302,18.9831],[73.0225,18.9896],[73.0175,18.9772],[72.9947,18.9678],[72.9857,18.9709],[72.9777,18.9635],[72.9554,18.9733],[72.9555,18.965],[72.9414,18.9438],[72.9613,18.9217],[72.9588,18.9113],[72.9539,18.9071],[72.9491,18.9106],[72.9423,18.9088],[72.9413,18.8983],[72.9301,18.9107],[72.918,18.9099],[72.9139,18.9031],[72.9063,18.9027],[72.906,18.8846],[72.923,18.8658],[72.9256,18.8521],[72.9433,18.8455],[72.9673,18.856],[72.9753,18.8649],[72.9884,18.8656],[72.9892,18.8578],[72.9941,18.8576],[72.9896,18.8483],[72.9996,18.8459],[72.9884,18.8457],[72.98991,18.84],[72.7,18.84],[72.7,19.33],[72.79995,19.33],[72.8127,19.3255],[72.81865,19.33],[72.85779,19.33],[72.861,19.3294],[72.8734,19.3252],[72.8656,19.33],[72.87546,19.33],[72.8772,19.3287],[72.87805,19.33],[72.87877,19.33],[72.8781,19.3293]],[[72.9923,19.0589],[72.9932,19.05721],[72.9932,19.0621],[72.98333,19.0621],[72.9923,19.0589]],[[72.8146,18.9834],[72.8107,18.9785],[72.8086,18.9831],[72.8099,18.9787],[72.8057,18.9776],[72.8032,18.9656],[72.7917,18.9489],[72.7934,18.9392],[72.798,18.9472],[72.8101,18.9547],[72.8176,18.9509],[72.8238,18.9399],[72.818,18.9254],[72.8255,18.9197],[72.8219,18.9163],[72.8169,18.9186],[72.812,18.9113],[72.80853,18.91458],[72.8054,18.911],[72.806,18.8937],[72.8004,18.8801],[72.8188,18.9023],[72.8178,18.9074],[72.8223,18.9108],[72.8252,18.9076],[72.835,18.9237],[72.8397,18.9204],[72.8444,18.9253],[72.8404,18.9212],[72.8404,18.9277],[72.8362,18.9281],[72.841,18.9333],[72.8442,18.9291],[72.8463,18.9519],[72.8507,18.9577],[72.8506,18.9588],[72.848,18.958],[72.85,18.9659],[72.8536,18.9665],[72.8489,18.9729],[72.8535,18.9722],[72.8612,18.9816],[72.8571,18.9915],[72.8621,18.9954],[72.861,19.002],[72.8837,19.0087],[72.8857,18.9984],[72.8955,19.0014],[72.8954,18.9992],[72.8887,18.9989],[72.8875,18.9948],[72.9012,18.9974],[72.9046,18.9925],[72.9068,18.998],[72.919,18.9996],[72.9572,19.0317],[72.9622,19.0556],[72.96038,19.0621],[72.9504,19.0621],[72.95998,19.06353],[72.9562,19.077],[72.9584,19.0972],[72.9776,19.1464],[72.9826,19.1832],[72.9835,19.1958],[73.0034,19.2231],[72.9878,19.2777],[72.9712,19.2918],[72.9573,19.295],[72.9479,19.2941],[72.9366,19.2863],[72.9127,19.288],[72.9125,19.2805],[72.92,19.2798],[72.914,19.2742],[72.907,19.2872],[72.8958,19.2899],[72.8558,19.3181],[72.8406,19.3178],[72.8162,19.302],[72.8028,19.3037],[72.7931,19.3101],[72.7862,19.3063],[72.784,19.2813],[72.7786,19.2786],[72.7855,19.2656],[72.7807,19.2596],[72.7805,19.2305],[72.7762,19.2253],[72.7815,19.2129],[72.7754,19.2052],[72.77621,19.20504],[72.8026,19.22752],[72.7954,19.2257],[72.7927,19.2282],[72.7954,19.2308],[72.7954,19.2282],[72.8034,19.2282],[72.8174,19.2322],[72.8613,19.2318],[72.8613,19.2282],[72.8213,19.2282],[72.8174,19.2245],[72.8174,19.2036],[72.78379,19.20352],[72.7849,19.2033],[72.7811,19.2009],[72.7824,19.1929],[72.7968,19.1964],[72.7933,19.1722],[72.7861,19.1664],[72.7811,19.1672],[72.7811,19.1579],[72.7886,19.149],[72.7833,19.1385],[72.7869,19.1368],[72.7869,19.1292],[72.7933,19.1302],[72.7967,19.134],[72.7941,19.1409],[72.80354,19.1452],[72.7948,19.1452],[72.8174,19.1603],[72.8312,19.1452],[72.8174,19.1442],[72.8174,19.1452],[72.80412,19.1452],[72.802,19.137],[72.8053,19.1386],[72.8143,19.1281],[72.82242,19.1036],[72.8227,19.1036],[72.82249,19.1034],[72.8262,19.0922],[72.8215,19.0767],[72.8206,19.0589],[72.824,19.0551],[72.8171,19.0422],[72.8225,19.0404],[72.8339,19.0494],[72.8382,19.043],[72.83817,19.04272],[72.8394,19.0439],[72.8394,19.0413],[72.83804,19.0413],[72.8371,19.0315],[72.8289,19.0207],[72.8203,19.018],[72.8153,19.026],[72.8176,19.0166],[72.8104,18.9879],[72.8146,18.9834]],[[72.8144,18.9213],[72.8085,18.9146],[72.80853,18.91458],[72.8144,18.9213]],[[72.9007,18.9641],[72.8999,18.9606],[72.9031,18.9574],[72.9017,18.9547],[72.9068,18.9584],[72.9007,18.9641]],[[72.9383,18.9718],[72.9305,18.9669],[72.9316,18.9682],[72.931,18.9724],[72.9315,18.9683],[72.9303,18.9671],[72.9249,18.9602],[72.9348,18.9526],[72.9425,18.9673],[72.9383,18.9718]],[[72.7804,19.322],[72.7897,19.3166],[72.7883,19.3205],[72.7969,19.3196],[72.7947,19.3232],[72.7877,19.3242],[72.7804,19.322]]],[[[72.8833,19.1054],[72.8852,19.1036],[72.8833,19.1036],[72.8833,19.1054]]],[[[72.9932,19.1072],[72.997,19.1036],[72.9932,19.1036],[72.9932,19.1072]]],[[[72.8174,19.1244],[72.8207,19.1244],[72.8174,19.1212],[72.8174,19.1244]]],[[[72.9492,19.1452],[72.9601,19.1452],[72.9492,19.1349],[72.9492,19.1452]]],[[[72.9239,19.1452],[72.9053,19.1313],[72.8929,19.1452],[72.9053,19.1602],[72.9376,19.1797],[72.9239,19.1452]]],[[[72.8349,19.1659],[72.8394,19.1683],[72.8408,19.1659],[72.8349,19.1659]]],[[[72.8346,19.1867],[72.8394,19.1912],[72.8394,19.1867],[72.8346,19.1867]]],[[[72.9053,19.1999],[72.9192,19.1867],[72.9053,19.1867],[72.9053,19.1999]]],[[[72.8833,19.2314],[72.8833,19.2264],[72.8809,19.2282],[72.8833,19.2314]]],[[[72.814,19.2489],[72.8174,19.2521],[72.8208,19.2489],[72.8174,19.2458],[72.814,19.2489]]],[[[72.8579,19.2697],[72.8613,19.2728],[72.8613,19.266],[72.8579,19.2697]]],[[[73.0397,18.8751],[73.0371,18.8737],[73.0371,18.8751],[73.0315,18.8751],[73.0371,18.8783],[73.0397,18.8751]]],[[[73.071,18.8959],[73.08,18.90472],[73.08,18.88859],[73.071,18.8959]]],[[[73.0125,18.8959],[73.0151,18.8984],[73.0151,18.8959],[73.0125,18.8959]]],[[[73.0371,18.9007],[73.0371,18.8959],[73.0319,18.8959],[73.0371,18.9007]]],[[[73.0643,18.979],[73.0548,18.979],[73.0591,18.9832],[73.0643,18.979]]],[[[73.0591,19.0257],[73.07,19.0206],[73.0591,19.0069],[73.0371,19.0068],[73.0506,19.0206],[73.0591,19.0257]]],[[[73.0781,19.1452],[73.08,19.14773],[73.08,19.14406],[73.0781,19.1452]]],[[[73.0405,19.1659],[73.0371,19.1659],[73.0371,19.1691],[73.0405,19.1659]]],[[[73.0743,19.1867],[73.08,19.1867],[73.08,19.18134],[73.0743,19.1867]]],[[[73.0151,19.1867],[73.0199,19.1867],[73.0151,19.1822],[73.0151,19.1867]]],[[[73.0316,19.1867],[73.0371,19.1917],[73.0371,19.1867],[73.0316,19.1867]]],[[[73.0591,19.2074],[73.0591,19.2238],[73.0672,19.2074],[73.0591,19.2013],[73.0151,19.1997],[73.0151,19.2074],[73.0052,19.2074],[73.0151,19.2182],[73.0291,19.2074],[73.0591,19.2074]]],[[[73.08,19.2371],[73.08,19.2282],[73.078,19.2282],[73.08,19.2371]]],[[[73.0692,19.2282],[73.0591,19.2282],[73.0591,19.2377],[73.0692,19.2282]]],[[[73.0151,19.2697],[73.0151,19.2715],[73.017,19.2697],[73.0151,19.2697]]],[[[73.0716,19.2697],[73.08,19.27757],[73.08,19.2697],[73.0716,19.2697]]],[[[72.9932,19.2955],[72.9986,19.2904],[72.9932,19.2904],[72.9932,19.2955]]],[[[73.0371,19.3143],[73.0371,19.3069],[73.0329,19.3111],[73.0371,19.3143]]],[[[73.0151,19.3152],[73.0151,19.3111],[73.0108,19.3111],[73.0151,19.3152]]]]}}